sat26007
1 26007U 91068S   20046.95164859  .00000016  00000-0  39297-4 0  9999
2 26007  82.6953 228.6114 0010691 256.5956 256.9893 12.48340235927292
